sat38378
1 38378U 65027CF  20046.35649636 -.00000511  00000-0 -16706-2 0  9994
2 38378  90.2949 280.9758 0035005 216.2630 143.6121 13.02041834317797
